RCM-1                   
1 44322U 19033A   26194.09560374  .00000290  00000+0  33601-4 0  9994
2 44322  97.7608 201.1761 0001536  93.1495 357.5013 14.92584846385942
RCM-3                   
1 44323U 19033B   26193.83320515  .00000174  00000+0  22388-4 0  9998
2 44323  97.7602 201.0117 0001521  89.2193 270.9201 14.92589461385929
RCM-2                   
1 44324U 19033C   26194.05652685 -.00000155  00000+0 -96544-5 0  9997
2 44324  97.7608 201.1825 0001495  90.3965 269.7426 14.92585542385946
