{"fetched_at":"2026-07-13T07:48:40.131Z","source":"https://celestrak.org/NORAD/elements/gp.php?NAME=RCM&FORMAT=JSON","constellation":"rcm","records":[{"OBJECT_NAME":"RCM-1","OBJECT_ID":"2019-033A","EPOCH":"2026-07-13T02:17:40.163136","CLASSIFICATION_TYPE":"U","MEAN_MOTION":14.92584846,"ECCENTRICITY":0.0001536,"INCLINATION":97.7608,"RA_OF_ASC_NODE":201.1761,"ARG_OF_PERICENTER":93.1495,"MEAN_ANOMALY":357.5013,"EPHEMERIS_TYPE":0,"NORAD_CAT_ID":44322,"ELEMENT_SET_NO":999,"REV_AT_EPOCH":38594,"BSTAR":0.000033601,"MEAN_MOTION_DOT":0.0000029,"MEAN_MOTION_DDOT":0},{"OBJECT_NAME":"RCM-3","OBJECT_ID":"2019-033B","EPOCH":"2026-07-12T19:59:48.924960","CLASSIFICATION_TYPE":"U","MEAN_MOTION":14.92589461,"ECCENTRICITY":0.0001521,"INCLINATION":97.7602,"RA_OF_ASC_NODE":201.0117,"ARG_OF_PERICENTER":89.2193,"MEAN_ANOMALY":270.9201,"EPHEMERIS_TYPE":0,"NORAD_CAT_ID":44323,"ELEMENT_SET_NO":999,"REV_AT_EPOCH":38592,"BSTAR":0.000022388,"MEAN_MOTION_DOT":0.00000174,"MEAN_MOTION_DDOT":0},{"OBJECT_NAME":"RCM-2","OBJECT_ID":"2019-033C","EPOCH":"2026-07-13T01:21:23.919840","CLASSIFICATION_TYPE":"U","MEAN_MOTION":14.92585542,"ECCENTRICITY":0.0001495,"INCLINATION":97.7608,"RA_OF_ASC_NODE":201.1825,"ARG_OF_PERICENTER":90.3965,"MEAN_ANOMALY":269.7426,"EPHEMERIS_TYPE":0,"NORAD_CAT_ID":44324,"ELEMENT_SET_NO":999,"REV_AT_EPOCH":38594,"BSTAR":-0.0000096544,"MEAN_MOTION_DOT":-0.00000155,"MEAN_MOTION_DDOT":0}]}
